TRANSPORTER-11 OBJECT A 
1 60468U 24149A   26068.74646182  .00010774  00000+0  36054-3 0  9993
2 60468  97.3780 149.0949 0003110 191.0010 169.1164 15.31141332 86830
STARLINK-35161          
1 65936U 25225AC  26068.48823902  .00025086  00000+0  85691-3 0  9995
2 65936  53.1575 166.8743 0001244  50.5850 309.5261 15.30174724 23483
