[{"OBJECT_NAME":"TRANSPORTER-11 OBJECT A","OBJECT_ID":"2024-149A","EPOCH":"2026-03-09T17:54:54.302112","MEAN_MOTION":15.31141332,"ECCENTRICITY":0.00031096,"INCLINATION":97.378,"RA_OF_ASC_NODE":149.0949,"ARG_OF_PERICENTER":191.001,"MEAN_ANOMALY":169.1164,"EPHEMERIS_TYPE":0,"CLASSIFICATION_TYPE":"U","NORAD_CAT_ID":60468,"ELEMENT_SET_NO":999,"REV_AT_EPOCH":8683,"BSTAR":0.00036053677,"MEAN_MOTION_DOT":0.00010774,"MEAN_MOTION_DDOT":0},{"OBJECT_NAME":"STARLINK-35161","OBJECT_ID":"2025-225AC","EPOCH":"2026-03-09T11:43:03.851328","MEAN_MOTION":15.30174724,"ECCENTRICITY":0.00012445,"INCLINATION":53.1575,"RA_OF_ASC_NODE":166.8743,"ARG_OF_PERICENTER":50.585,"MEAN_ANOMALY":309.5261,"EPHEMERIS_TYPE":0,"CLASSIFICATION_TYPE":"U","NORAD_CAT_ID":65936,"ELEMENT_SET_NO":999,"REV_AT_EPOCH":2348,"BSTAR":0.00085690808,"MEAN_MOTION_DOT":0.00025086,"MEAN_MOTION_DDOT":0}]
